BRO-5                   
1 51061U 22002CF  26202.24616991  .00010601  00000+0  19708-3 0  9994
2 51061  97.2973 276.2581 0006030 181.0683 179.0556 15.49060360251521
BRO-6                   
1 52422U 22047AE  26202.18604069  .00036204  00000+0  58255-3 0  9998
2 52422  97.3380 293.9516 0002951 275.8933  84.1983 15.52894881236427
BRO-8                   
1 55011U 23001C   26202.19760641  .00027383  00000+0  47212-3 0  9995
2 55011  97.3177 267.9170 0004222  16.7936 343.3455 15.51006404197473
BRO-11                  
1 58264U 23174J   26202.24606405  .00003316  00000+0  12532-3 0  9999
2 58264  97.3890 278.7814 0012000  89.3331 270.9283 15.27624884149956
BRO-13                  
1 59107U 24043K   26202.25692112  .00001125  00000+0  10381-3 0  9999
2 59107  97.8539 333.3919 0007455 238.8817 121.1673 14.96665102129715
BRO-12                  
1 59108U 24043L   26202.31434207  .00001413  00000+0  12827-3 0  9993
2 59108  97.8522 333.6197 0007017 230.8250 129.2349 14.96906129129745
BRO-14                  
1 60551U 24149CM  26202.16876406  .00001031  00000+0  96413-4 0  9998
2 60551  97.6863 277.3354 0006266 358.8468   1.2738 14.96248794105079
BRO-15                  
1 60553U 24149CP  26202.15152412  .00000918  00000+0  86466-4 0  9993
2 60553  97.6789 276.8884 0007116 345.2617  14.8396 14.96228757105089
BRO-16                  
1 62654U 25009AX  26202.15454269  .00002454  00000+0  10378-3 0  9993
2 62654  97.4048 282.2231 0002561 141.7174 218.4246 15.24155394 83979
BRO-18                  
1 64550U 25135Y   26202.30512300  .00002655  00000+0  11867-3 0  9995
2 64550  97.4653 317.0787 0002637 108.1961 251.9563 15.22201105 60065
BRO-17                  
1 66672U 25276G   26202.12810069  .00002066  00000+0  10434-3 0  9996
2 66672  97.4177 274.5804 0005405 233.1941 126.8798 15.18180594 35541
BRO-20                  
1 66674U 25276J   26202.16936736  .00002022  00000+0  10171-3 0  9992
2 66674  97.4156 274.6088 0004983 236.1637 123.9123 15.18348040 35553
BRO-19                  
1 68422U 26067G   26201.84491613  .00002715  00000+0  13293-3 0  9995
2 68422  97.4496 159.8255 0002774 102.4077 257.7468 15.19014311 17057
BRO-21                  
1 69007U 26100AD  26201.27038182  .00003313  00000+0  14962-3 0  9997
2 69007  97.4002  98.6216 0006548 307.5906  52.4735 15.21646820 11835
BRO-22                  
1 69504U 26132C   26202.04537447  .00001724  00000+0  14368-3 0  9992
2 69504  97.6823 265.2899 0017236 159.8100 200.3809 14.99826012  5857
