{"fetched_at":"2026-07-21T17:53:18.457Z","source":"https://celestrak.org/NORAD/elements/gp.php?NAME=BRO&FORMAT=JSON","constellation":"unseenlabs","records":[{"OBJECT_NAME":"BRO-5","OBJECT_ID":"2022-002CF","EPOCH":"2026-07-21T05:54:29.080224","CLASSIFICATION_TYPE":"U","MEAN_MOTION":15.4906036,"ECCENTRICITY":0.00060305,"INCLINATION":97.2973,"RA_OF_ASC_NODE":276.2581,"ARG_OF_PERICENTER":181.0683,"MEAN_ANOMALY":179.0556,"EPHEMERIS_TYPE":0,"NORAD_CAT_ID":51061,"ELEMENT_SET_NO":999,"REV_AT_EPOCH":25152,"BSTAR":0.00019708214,"MEAN_MOTION_DOT":0.00010601,"MEAN_MOTION_DDOT":0},{"OBJECT_NAME":"BRO-6","OBJECT_ID":"2022-047AE","EPOCH":"2026-07-21T04:27:53.915616","CLASSIFICATION_TYPE":"U","MEAN_MOTION":15.52894881,"ECCENTRICITY":0.00029514,"INCLINATION":97.338,"RA_OF_ASC_NODE":293.9516,"ARG_OF_PERICENTER":275.8933,"MEAN_ANOMALY":84.1983,"EPHEMERIS_TYPE":0,"NORAD_CAT_ID":52422,"ELEMENT_SET_NO":999,"REV_AT_EPOCH":23642,"BSTAR":0.00058254663,"MEAN_MOTION_DOT":0.00036204,"MEAN_MOTION_DDOT":0},{"OBJECT_NAME":"BRO-8","OBJECT_ID":"2023-001C","EPOCH":"2026-07-21T04:44:33.193824","CLASSIFICATION_TYPE":"U","MEAN_MOTION":15.51006404,"ECCENTRICITY":0.00042224,"INCLINATION":97.3177,"RA_OF_ASC_NODE":267.917,"ARG_OF_PERICENTER":16.7936,"MEAN_ANOMALY":343.3455,"EPHEMERIS_TYPE":0,"NORAD_CAT_ID":55011,"ELEMENT_SET_NO":999,"REV_AT_EPOCH":19747,"BSTAR":0.00047211914,"MEAN_MOTION_DOT":0.00027383,"MEAN_MOTION_DDOT":0},{"OBJECT_NAME":"BRO-11","OBJECT_ID":"2023-174J","EPOCH":"2026-07-21T05:54:19.933920","CLASSIFICATION_TYPE":"U","MEAN_MOTION":15.27624884,"ECCENTRICITY":0.0012,"INCLINATION":97.389,"RA_OF_ASC_NODE":278.7814,"ARG_OF_PERICENTER":89.3331,"MEAN_ANOMALY":270.9283,"EPHEMERIS_TYPE":0,"NORAD_CAT_ID":58264,"ELEMENT_SET_NO":999,"REV_AT_EPOCH":14995,"BSTAR":0.00012532156,"MEAN_MOTION_DOT":0.00003316,"MEAN_MOTION_DDOT":0},{"OBJECT_NAME":"BRO-13","OBJECT_ID":"2024-043K","EPOCH":"2026-07-21T06:09:57.984768","CLASSIFICATION_TYPE":"U","MEAN_MOTION":14.96665102,"ECCENTRICITY":0.0007455,"INCLINATION":97.8539,"RA_OF_ASC_NODE":333.3919,"ARG_OF_PERICENTER":238.8817,"MEAN_ANOMALY":121.1673,"EPHEMERIS_TYPE":0,"NORAD_CAT_ID":59107,"ELEMENT_SET_NO":999,"REV_AT_EPOCH":12971,"BSTAR":0.00010381318,"MEAN_MOTION_DOT":0.00001125,"MEAN_MOTION_DDOT":0},{"OBJECT_NAME":"BRO-12","OBJECT_ID":"2024-043L","EPOCH":"2026-07-21T07:32:39.154848","CLASSIFICATION_TYPE":"U","MEAN_MOTION":14.96906129,"ECCENTRICITY":0.00070174,"INCLINATION":97.8522,"RA_OF_ASC_NODE":333.6197,"ARG_OF_PERICENTER":230.825,"MEAN_ANOMALY":129.2349,"EPHEMERIS_TYPE":0,"NORAD_CAT_ID":59108,"ELEMENT_SET_NO":999,"REV_AT_EPOCH":12974,"BSTAR":0.00012826954,"MEAN_MOTION_DOT":0.00001413,"MEAN_MOTION_DDOT":0},{"OBJECT_NAME":"BRO-14","OBJECT_ID":"2024-149CM","EPOCH":"2026-07-21T04:03:01.214784","CLASSIFICATION_TYPE":"U","MEAN_MOTION":14.96248794,"ECCENTRICITY":0.00062664,"INCLINATION":97.6863,"RA_OF_ASC_NODE":277.3354,"ARG_OF_PERICENTER":358.8468,"MEAN_ANOMALY":1.2738,"EPHEMERIS_TYPE":0,"NORAD_CAT_ID":60551,"ELEMENT_SET_NO":999,"REV_AT_EPOCH":10507,"BSTAR":0.00009641304,"MEAN_MOTION_DOT":0.00001031,"MEAN_MOTION_DDOT":0},{"OBJECT_NAME":"BRO-15","OBJECT_ID":"2024-149CP","EPOCH":"2026-07-21T03:38:11.683968","CLASSIFICATION_TYPE":"U","MEAN_MOTION":14.96228757,"ECCENTRICITY":0.00071168,"INCLINATION":97.6789,"RA_OF_ASC_NODE":276.8884,"ARG_OF_PERICENTER":345.2617,"MEAN_ANOMALY":14.8396,"EPHEMERIS_TYPE":0,"NORAD_CAT_ID":60553,"ELEMENT_SET_NO":999,"REV_AT_EPOCH":10508,"BSTAR":0.000086466371,"MEAN_MOTION_DOT":0.00000918,"MEAN_MOTION_DDOT":0},{"OBJECT_NAME":"BRO-16","OBJECT_ID":"2025-009AX","EPOCH":"2026-07-21T03:42:32.488416","CLASSIFICATION_TYPE":"U","MEAN_MOTION":15.24155394,"ECCENTRICITY":0.00025612,"INCLINATION":97.4048,"RA_OF_ASC_NODE":282.2231,"ARG_OF_PERICENTER":141.7174,"MEAN_ANOMALY":218.4246,"EPHEMERIS_TYPE":0,"NORAD_CAT_ID":62654,"ELEMENT_SET_NO":999,"REV_AT_EPOCH":8397,"BSTAR":0.00010378394,"MEAN_MOTION_DOT":0.00002454,"MEAN_MOTION_DDOT":0},{"OBJECT_NAME":"BRO-18","OBJECT_ID":"2025-135Y","EPOCH":"2026-07-21T07:19:22.627200","CLASSIFICATION_TYPE":"U","MEAN_MOTION":15.22201105,"ECCENTRICITY":0.0002637,"INCLINATION":97.4653,"RA_OF_ASC_NODE":317.0787,"ARG_OF_PERICENTER":108.1961,"MEAN_ANOMALY":251.9563,"EPHEMERIS_TYPE":0,"NORAD_CAT_ID":64550,"ELEMENT_SET_NO":999,"REV_AT_EPOCH":6006,"BSTAR":0.00011867191,"MEAN_MOTION_DOT":0.00002655,"MEAN_MOTION_DDOT":0},{"OBJECT_NAME":"BRO-17","OBJECT_ID":"2025-276G","EPOCH":"2026-07-21T03:04:27.899616","CLASSIFICATION_TYPE":"U","MEAN_MOTION":15.18180594,"ECCENTRICITY":0.00054053,"INCLINATION":97.4177,"RA_OF_ASC_NODE":274.5804,"ARG_OF_PERICENTER":233.1941,"MEAN_ANOMALY":126.8798,"EPHEMERIS_TYPE":0,"NORAD_CAT_ID":66672,"ELEMENT_SET_NO":999,"REV_AT_EPOCH":3554,"BSTAR":0.00010433564,"MEAN_MOTION_DOT":0.00002066,"MEAN_MOTION_DDOT":0},{"OBJECT_NAME":"BRO-20","OBJECT_ID":"2025-276J","EPOCH":"2026-07-21T04:03:53.339904","CLASSIFICATION_TYPE":"U","MEAN_MOTION":15.1834804,"ECCENTRICITY":0.00049835,"INCLINATION":97.4156,"RA_OF_ASC_NODE":274.6088,"ARG_OF_PERICENTER":236.1637,"MEAN_ANOMALY":123.9123,"EPHEMERIS_TYPE":0,"NORAD_CAT_ID":66674,"ELEMENT_SET_NO":999,"REV_AT_EPOCH":3555,"BSTAR":0.00010170846,"MEAN_MOTION_DOT":0.00002022,"MEAN_MOTION_DDOT":0},{"OBJECT_NAME":"BRO-19","OBJECT_ID":"2026-067G","EPOCH":"2026-07-20T20:16:40.753632","CLASSIFICATION_TYPE":"U","MEAN_MOTION":15.19014311,"ECCENTRICITY":0.00027742,"INCLINATION":97.4496,"RA_OF_ASC_NODE":159.8255,"ARG_OF_PERICENTER":102.4077,"MEAN_ANOMALY":257.7468,"EPHEMERIS_TYPE":0,"NORAD_CAT_ID":68422,"ELEMENT_SET_NO":999,"REV_AT_EPOCH":1705,"BSTAR":0.00013292791,"MEAN_MOTION_DOT":0.00002715,"MEAN_MOTION_DDOT":0},{"OBJECT_NAME":"BRO-21","OBJECT_ID":"2026-100AD","EPOCH":"2026-07-20T06:29:20.989248","CLASSIFICATION_TYPE":"U","MEAN_MOTION":15.2164682,"ECCENTRICITY":0.00065488,"INCLINATION":97.4002,"RA_OF_ASC_NODE":98.6216,"ARG_OF_PERICENTER":307.5906,"MEAN_ANOMALY":52.4735,"EPHEMERIS_TYPE":0,"NORAD_CAT_ID":69007,"ELEMENT_SET_NO":999,"REV_AT_EPOCH":1183,"BSTAR":0.00014961956,"MEAN_MOTION_DOT":0.00003313,"MEAN_MOTION_DDOT":0},{"OBJECT_NAME":"BRO-22","OBJECT_ID":"2026-132C","EPOCH":"2026-07-21T01:05:20.354208","CLASSIFICATION_TYPE":"U","MEAN_MOTION":14.99826012,"ECCENTRICITY":0.00172364,"INCLINATION":97.6823,"RA_OF_ASC_NODE":265.2899,"ARG_OF_PERICENTER":159.81,"MEAN_ANOMALY":200.3809,"EPHEMERIS_TYPE":0,"NORAD_CAT_ID":69504,"ELEMENT_SET_NO":999,"REV_AT_EPOCH":585,"BSTAR":0.00014367793,"MEAN_MOTION_DOT":0.00001724,"MEAN_MOTION_DDOT":0}]}
